NORAD_CAT_ID,OBJECT_NAME,OBJECT_TYPE,EPOCH,MEAN_MOTION,ECCENTRICITY,INCLINATION,RA_OF_ASC_NODE,ARG_OF_PERICENTER,MEAN_ANOMALY,BSTAR,MEAN_MOTION_DOT,MEAN_MOTION_DDOT,TLE_LINE0,TLE_LINE1,TLE_LINE2,SEMIMAJOR_AXIS,PERIOD,APOGEE,PERIGEE,DECAYED
56471.0,STARLINK-5521,PAYLOAD,2023-07-09 19:11:59,15.69918269,0.0003441,69.9981,76.3976,274.75,85.3303,-5.1365e-06,-8.3e-06,0.0,0 STARLINK-5521,1 56471U 23064Z   23190.79999709 -.00000830  00000-0 -51365-5 0  9990,2 56471  69.9981  76.3976 0003441 274.7500  85.3303 15.69918269  9807,6737.268,91.725,361.451,356.815,0.0
56471.0,STARLINK-5521,PAYLOAD,2023-07-10 02:50:44,15.69931676,0.0003567,69.9976,75.502,267.0708,93.008,7.0134e-06,6.31e-06,0.0,0 STARLINK-5521,1 56471U 23064Z   23191.11856940  .00000631  00000-0  70134-5 0  9998,2 56471  69.9976  75.5020 0003567 267.0708  93.0080 15.69931676  9856,6737.229,91.724,361.498,356.691,0.0
56471.0,STARLINK-5521,PAYLOAD,2023-07-11 01:47:01,15.6992382,0.0003144,69.9974,72.8141,264.3797,95.704,5.709e-06,4.74e-06,0.0,0 STARLINK-5521,1 56471U 23064Z   23192.07432566  .00000474  00000-0  57090-5 0  9999,2 56471  69.9974  72.8141 0003144 264.3797  95.7040 15.69923820 10003,6737.252,91.724,361.235,356.999,0.0
56471.0,STARLINK-5521,PAYLOAD,2023-07-12 19:04:20,15.69932875,0.0002714,69.9987,67.9778,258.4561,101.633,-1.8593e-05,-2.448e-05,0.0,0 STARLINK-5521,1 56471U 23064Z   23193.79467722 -.00002448  00000-0 -18593-4 0  9990,2 56471  69.9987  67.9778 0002714 258.4561 101.6330 15.69932875 10271,6737.226,91.724,360.92,357.263,0.0
56471.0,STARLINK-5521,PAYLOAD,2023-07-14 16:56:53,15.69927776,0.0003577,69.997,62.6018,266.6279,93.4507,3.5787e-06,2.17e-06,0.0,0 STARLINK-5521,1 56471U 23064Z   23195.70617621  .00000217  00000-0  35787-5 0  9993,2 56471  69.9970  62.6018 0003577 266.6279  93.4507 15.69927776 10578,6737.241,91.724,361.516,356.696,0.0
56471.0,STARLINK-5521,PAYLOAD,2023-07-15 00:35:39,15.69923526,0.0003112,69.9967,61.7056,276.0155,84.0686,-9.936e-07,-3.32e-06,0.0,0 STARLINK-5521,1 56471U 23064Z   23196.02476410 -.00000332  00000-0 -99360-6 0  9996,2 56471  69.9967  61.7056 0003112 276.0155  84.0686 15.69923526 10628,6737.253,91.724,361.214,357.021,0.0
56471.0,STARLINK-5521,PAYLOAD,2023-07-16 16:21:12,15.69923829,0.0003456,69.9973,57.0477,266.3379,93.7421,4.2984e-06,3.04e-06,0.0,0 STARLINK-5521,1 56471U 23064Z   23197.68139786  .00000304  00000-0  42984-5 0  9997,2 56471  69.9973  57.0477 0003456 266.3379  93.7421 15.69923829 10889,6737.252,91.724,361.445,356.789,0.0
56471.0,STARLINK-5521,PAYLOAD,2023-07-16 23:59:57,15.69930825,0.0003507,69.9967,56.1513,262.6173,97.4624,1.133e-05,1.15e-05,0.0,0 STARLINK-5521,1 56471U 23064Z   23197.99997548  .00001150  00000-0  11330-4 0  9999,2 56471  69.9967  56.1513 0003507 262.6173  97.4624 15.69930825 10937,6737.232,91.724,361.46,356.734,0.0
56471.0,STARLINK-5521,PAYLOAD,2023-07-18 15:45:31,15.69931744,0.0003786,69.9964,51.4946,269.8494,90.2268,7.1948e-06,6.52e-06,0.0,0 STARLINK-5521,1 56471U 23064Z   23199.65660982  .00000652  00000-0  71948-5 0  9991,2 56471  69.9964  51.4946 0003786 269.8494  90.2268 15.69931744 11191,6737.229,91.724,361.645,356.544,0.0
56471.0,STARLINK-5521,PAYLOAD,2023-07-19 00:56:02,15.69922106,0.0004333,69.9962,50.4198,278.2196,81.8508,-3.5966e-06,-6.46e-06,0.0,0 STARLINK-5521,1 56471U 23064Z   23200.03891774 -.00000646  00000-0 -35966-5 0  9996,2 56471  69.9962  50.4198 0004333 278.2196  81.8508 15.69922106 11251,6737.257,91.724,362.041,356.203,0.0
56471.0,STARLINK-5521,PAYLOAD,2023-07-19 17:45:18,15.69928181,0.0003092,69.9989,48.4476,262.8319,97.2525,5.7923e-06,4.84e-06,0.0,0 STARLINK-5521,1 56471U 23064Z   23200.73979828  .00000484  00000-0  57923-5 0  9995,2 56471  69.9989  48.4476 0003092 262.8319  97.2525 15.69928181 11364,6737.239,91.724,361.188,357.021,0.0
56471.0,STARLINK-5521,PAYLOAD,2023-07-21 00:20:21,15.6991995,0.0003231,69.9981,44.8661,270.7979,89.2846,2.819e-05,3.178e-05,0.0,0 STARLINK-5521,1 56471U 23064Z   23202.01413594  .00003178  00000-0  28190-4 0  9997,2 56471  69.9981  44.8661 0003231 270.7979  89.2846 15.69919950 11560,6737.263,91.724,361.305,356.951,0.0
56471.0,STARLINK-5521,PAYLOAD,2023-07-24 12:26:43,15.69927754,0.0003597,69.9981,35.0133,265.069,95.0095,-4.4336e-06,-7.46e-06,0.0,0 STARLINK-5521,1 56471U 23064Z   23205.51855689 -.00000746  00000-0 -44336-5 0  9991,2 56471  69.9981  35.0133 0003597 265.0690  95.0095 15.69927754 11762,6737.241,91.724,361.529,356.682,0.0
56471.0,STARLINK-5521,PAYLOAD,2023-07-24 23:08:58,15.69928804,0.0003515,69.9983,33.7593,264.1201,95.9594,-4.916e-07,-2.72e-06,0.0,0 STARLINK-5521,1 56471U 23064Z   23205.96457173 -.00000272  00000-0 -49160-6 0  9991,2 56471  69.9983  33.7593 0003515 264.1201  95.9594 15.69928804 11835,6737.238,91.724,361.471,356.735,0.0
56471.0,STARLINK-5521,PAYLOAD,2023-07-26 11:51:02,15.69923538,0.0003885,69.9968,29.4577,266.068,94.0072,1.071e-05,1.075e-05,0.0,0 STARLINK-5521,1 56471U 23064Z   23207.49377488  .00001075  00000-0  10710-4 0  9998,2 56471  69.9968  29.4577 0003885 266.0680  94.0072 15.69923538 12071,6737.253,91.724,361.735,356.5,0.0
56471.0,STARLINK-5521,PAYLOAD,2023-07-26 14:54:31,15.69933882,0.0003681,69.9969,29.0988,261.7565,98.3213,2.2312e-05,2.472e-05,0.0,0 STARLINK-5521,1 56471U 23064Z   23207.62119970  .00002472  00000-0  22312-4 0  9996,2 56471  69.9969  29.0988 0003681 261.7565  98.3213 15.69933882 12440,6737.223,91.724,361.568,356.608,0.0
56471.0,STARLINK-5521,PAYLOAD,2023-07-27 18:26:04,15.69923118,0.0004424,69.9969,25.8745,275.6434,84.4257,6.6347e-06,5.84e-06,0.0,0 STARLINK-5521,1 56471U 23064Z   23208.76811126  .00000584  00000-0  66347-5 0  9993,2 56471  69.9969  25.8745 0004424 275.6434  84.4257 15.69923118 12625,6737.254,91.724,362.1,356.138,0.0
56471.0,STARLINK-5521,PAYLOAD,2023-07-27 21:29:34,15.699272,0.0003961,69.997,25.5166,274.1347,85.9396,3.653e-06,2.26e-06,0.0,0 STARLINK-5521,1 56471U 23064Z   23208.89554274  .00000226  00000-0  36530-5 0  9999,2 56471  69.9970  25.5166 0003961 274.1347  85.9396 15.69927200 12292,6737.242,91.724,361.776,356.439,0.0
56471.0,STARLINK-5521,PAYLOAD,2023-07-28 11:15:21,15.69924346,0.0004313,69.9991,23.9065,269.6133,90.4568,1.5666e-06,-2.5e-07,0.0,0 STARLINK-5521,1 56471U 23064Z   23209.46899424 -.00000025  00000-0  15666-5 0  9997,2 56471  69.9991  23.9065 0004313 269.6133  90.4568 15.69924346 12389,6737.25,91.724,362.021,356.21,0.0
56471.0,STARLINK-5521,PAYLOAD,2023-07-28 15:50:35,15.69933539,0.0003755,69.9974,23.3664,266.7881,93.2885,7.6204e-06,7.04e-06,0.0,0 STARLINK-5521,1 56471U 23064Z   23209.66013709  .00000704  00000-0  76204-5 0  9991,2 56471  69.9974  23.3664 0003755 266.7881  93.2885 15.69933539 12765,6737.224,91.724,361.619,356.559,0.0
56471.0,STARLINK-5521,PAYLOAD,2023-07-29 19:22:08,15.69934007,0.0003942,69.9981,20.1429,269.7527,90.3217,-3.5981e-07,-2.56e-06,0.0,0 STARLINK-5521,1 56471U 23064Z   23210.80704255 -.00000256  00000-0 -35981-6 0  9994,2 56471  69.9981  20.1429 0003942 269.7527  90.3217 15.69934007 12943,6737.223,91.724,361.744,356.432,0.0
56471.0,STARLINK-5521,PAYLOAD,2023-07-29 20:53:53,15.69914595,0.0003554,69.9979,19.9637,270.2957,89.7831,4.3032e-05,4.963e-05,0.0,0 STARLINK-5521,1 56471U 23064Z   23210.87076311  .00004963  00000-0  43032-4 0  9997,2 56471  69.9979  19.9637 0003554 270.2957  89.7831 15.69914595 12955,6737.278,91.725,361.538,356.749,0.0
56471.0,STARLINK-5521,PAYLOAD,2023-07-30 21:21:56,15.69920122,0.0003601,69.9981,17.0974,273.8165,86.2619,-1.2867e-06,-3.68e-06,0.0,0 STARLINK-5521,1 56471U 23064Z   23211.89023328 -.00000368  00000-0 -12867-5 0  9990,2 56471  69.9981  17.0974 0003601 273.8165  86.2619 15.69920122 13112,6737.263,91.724,361.554,356.701,0.0
56471.0,STARLINK-5521,PAYLOAD,2023-07-31 18:46:30,15.6988606,0.0003599,69.998,14.5899,274.91,85.1684,-3.7356e-05,-4.695e-05,0.0,0 STARLINK-5521,1 56471U 23064Z   23212.78230317 -.00004695  00000-0 -37356-4 0  9993,2 56471  69.9980  14.5899 0003599 274.9100  85.1684 15.69886060 13253,6737.36,91.726,361.65,356.8,0.0
56471.0,STARLINK-5521,PAYLOAD,2023-08-01 13:07:27,15.69956393,0.0003204,69.9983,12.4408,267.307,92.7759,3.5934e-05,4.116e-05,0.0,0 STARLINK-5521,1 56471U 23064Z   23213.54684979  .00004116  00000-0  35934-4 0  9991,2 56471  69.9983  12.4408 0003204 267.3070  92.7759 15.69956393 13371,6737.159,91.722,361.182,356.865,0.0
56471.0,STARLINK-5521,PAYLOAD,2023-08-01 20:46:15,15.69922628,0.0003544,69.9979,11.5438,272.5831,87.4959,-5.2063e-06,-8.39e-06,0.0,0 STARLINK-5521,1 56471U 23064Z   23213.86545567 -.00000839  00000-0 -52063-5 0  9998,2 56471  69.9979  11.5438 0003544 272.5831  87.4959 15.69922628 13422,6737.255,91.724,361.508,356.733,0.0
56471.0,STARLINK-5521,PAYLOAD,2023-08-03 11:00:03,15.69933272,0.0003169,69.9984,7.0657,274.2916,85.7917,-3.6009e-05,-4.542e-05,0.0,0 STARLINK-5521,1 56471U 23064Z   23215.45837847 -.00004542  00000-0 -36009-4 0  9996,2 56471  69.9984   7.0657 0003169 274.2916  85.7917 15.69933272 13676,6737.225,91.724,361.225,356.955,0.0
56471.0,STARLINK-5521,PAYLOAD,2023-08-03 20:10:33,15.6994212,0.0002959,69.9987,5.9905,269.5896,90.496,-2.2515e-05,-2.921e-05,0.0,0 STARLINK-5521,1 56471U 23064Z   23215.84066706 -.00002921  00000-0 -22515-4 0  9993,2 56471  69.9987   5.9905 0002959 269.5896  90.4960 15.69942120 13732,6737.2,91.723,361.058,357.071,0.0
56471.0,STARLINK-5521,PAYLOAD,2023-08-04 09:56:20,15.69921857,0.000343,69.9979,4.3773,271.5528,88.5275,2.4676e-06,8.4e-07,0.0,0 STARLINK-5521,1 56471U 23064Z   23216.41412266  .00000084  00000-0  24676-5 0  9990,2 56471  69.9979   4.3773 0003430 271.5528  88.5275 15.69921857 13820,6737.258,91.724,361.433,356.812,0.0
56471.0,STARLINK-5521,PAYLOAD,2023-08-04 19:06:50,15.69933819,0.0003848,69.9975,3.3035,275.6235,84.4521,1.2027e-05,1.234e-05,0.0,0 STARLINK-5521,1 56471U 23064Z   23216.79641353  .00001234  00000-0  12027-4 0  9996,2 56471  69.9975   3.3035 0003848 275.6235  84.4521 15.69933819 13885,6737.223,91.724,361.681,356.496,0.0
